start=new Date('2022-08-12T00:00:00.000Z').valueOf();
sats=[{"DECAY_DATE":null,"PERIOD":"95.593","APOAPSIS":"548.200","COUNTRY_CODE":"US","OBJECT_NAME":"STARLINK-2693","ELEMENT_SET_NO":"999","MEAN_MOTION_DDOT":"0.0000000000000","REF_FRAME":"TEME","TLE_LINE2":"2 48461  53.0547 289.7662 0001338  71.0345 289.0788 15.06380526 70986","OBJECT_ID":"2021-040AK","SEMIMAJOR_AXIS":"6925.408","ECCENTRICITY":"0.00013380","EPOCH":"2022-08-11T15:06:05.611104","GP_ID":"210039072","TLE_LINE1":"1 48461U 21040AK  22223.62923161 -.00000319  00000-0 -25327-5 0  9990","MEAN_MOTION":"15.06380526","OBJECT_TYPE":"PAYLOAD","CENTER_NAME":"EARTH","MEAN_MOTION_DOT":"-0.00000319","SITE":"AFETR","EPHEMERIS_TYPE":"0","ARG_OF_PERICENTER":"71.0345","LAUNCH_DATE":"2021-05-09","REV_AT_EPOCH":"7098","PERIAPSIS":"546.347","BSTAR":"-0.00000253270000","FILE":"3534644","RCS_SIZE":"LARGE","RA_OF_ASC_NODE":"289.7662","CLASSIFICATION_TYPE":"U","NORAD_CAT_ID":"48461","INCLINATION":"53.0547","MEAN_ANOMALY":"289.0788","MEAN_ELEMENT_THEORY":"SGP4","TIME_SYSTEM":"UTC"},{"OBJECT_NAME":"STARLINK-2683","ELEMENT_SET_NO":"999","PERIOD":"95.593","DECAY_DATE":null,"COUNTRY_CODE":"US","APOAPSIS":"548.104","SEMIMAJOR_AXIS":"6925.395","ECCENTRICITY":"0.00012180","TLE_LINE2":"2 48462  53.0549 295.6965 0001218  88.9544 271.1584 15.06384842 69615","MEAN_MOTION_DDOT":"0.0000000000000","REF_FRAME":"TEME","OBJECT_ID":"2021-040AL","OBJECT_TYPE":"PAYLOAD","MEAN_MOTION_DOT":"0.00000533","CENTER_NAME":"EARTH","MEAN_MOTION":"15.06384842","ARG_OF_PERICENTER":"88.9544","SITE":"AFETR","EPHEMERIS_TYPE":"0","GP_ID":"210027074","EPOCH":"2022-08-11T11:30:29.615616","TLE_LINE1":"1 48462U 21040AL  22223.47950944  .00000533  00000-0  54660-4 0  9990","RA_OF_ASC_NODE":"295.6965","CLASSIFICATION_TYPE":"U","BSTAR":"0.00005466000000","FILE":"3534319","RCS_SIZE":"LARGE","MEAN_ELEMENT_THEORY":"SGP4","TIME_SYSTEM":"UTC","NORAD_CAT_ID":"48462","INCLINATION":"53.0549","MEAN_ANOMALY":"271.1584","PERIAPSIS":"546.417","REV_AT_EPOCH":"6961","LAUNCH_DATE":"2021-05-09"},{"MEAN_MOTION_DDOT":"0.0000000000000","REF_FRAME":"TEME","TLE_LINE2":"2 48463  53.0555 293.6220 0001142  81.8044 278.3075 15.06389847 70951","OBJECT_ID":"2021-040AM","SEMIMAJOR_AXIS":"6925.380","ECCENTRICITY":"0.00011420","DECAY_DATE":null,"PERIOD":"95.593","APOAPSIS":"548.036","COUNTRY_CODE":"US","OBJECT_NAME":"STARLINK-2689","ELEMENT_SET_NO":"999","LAUNCH_DATE":"2021-05-09","REV_AT_EPOCH":"7095","PERIAPSIS":"546.454","FILE":"3534759","BSTAR":"-0.00010043000000","RCS_SIZE":"LARGE","RA_OF_ASC_NODE":"293.6220","CLASSIFICATION_TYPE":"U","NORAD_CAT_ID":"48463","INCLINATION":"53.0555","MEAN_ANOMALY":"278.3075","MEAN_ELEMENT_THEORY":"SGP4","TIME_SYSTEM":"UTC","GP_ID":"210041728","EPOCH":"2022-08-11T21:12:57.523104","TLE_LINE1":"1 48463U 21040AM  22223.88399911 -.00001776  00000-0 -10043-3 0  9995","MEAN_MOTION":"15.06389847","MEAN_MOTION_DOT":"-0.00001776","OBJECT_TYPE":"PAYLOAD","CENTER_NAME":"EARTH","SITE":"AFETR","EPHEMERIS_TYPE":"0","ARG_OF_PERICENTER":"81.8044"},{"SITE":"AFETR","EPHEMERIS_TYPE":"0","ARG_OF_PERICENTER":"83.9967","MEAN_MOTION":"15.06380079","OBJECT_TYPE":"PAYLOAD","MEAN_MOTION_DOT":"0.00000632","CENTER_NAME":"EARTH","TLE_LINE1":"1 48464U 21040AN  22223.46474483  .00000632  00000-0  61365-4 0  9990","GP_ID":"210027573","EPOCH":"2022-08-11T11:09:13.953312","INCLINATION":"53.0549","NORAD_CAT_ID":"48464","MEAN_ANOMALY":"276.1170","TIME_SYSTEM":"UTC","MEAN_ELEMENT_THEORY":"SGP4","RCS_SIZE":"MEDIUM","FILE":"3534319","BSTAR":"0.00006136500000","RA_OF_ASC_NODE":"295.5012","CLASSIFICATION_TYPE":"U","LAUNCH_DATE":"2021-05-09","REV_AT_EPOCH":"6961","PERIAPSIS":"546.372","ELEMENT_SET_NO":"999","OBJECT_NAME":"STARLINK-2686","APOAPSIS":"548.177","COUNTRY_CODE":"US","DECAY_DATE":null,"PERIOD":"95.593","ECCENTRICITY":"0.00013030","SEMIMAJOR_AXIS":"6925.410","OBJECT_ID":"2021-040AN","MEAN_MOTION_DDOT":"0.0000000000000","REF_FRAME":"TEME","TLE_LINE2":"2 48464  53.0549 295.5012 0001303  83.9967 276.1170 15.06380079 69612"},{"PERIAPSIS":"546.279","REV_AT_EPOCH":"7092","LAUNCH_DATE":"2021-05-09","CLASSIFICATION_TYPE":"U","RA_OF_ASC_NODE":"294.5477","FILE":"3534644","RCS_SIZE":"LARGE","BSTAR":"0.00002387300000","MEAN_ELEMENT_THEORY":"SGP4","TIME_SYSTEM":"UTC","MEAN_ANOMALY":"273.6462","INCLINATION":"53.0542","NORAD_CAT_ID":"48465","GP_ID":"210039074","EPOCH":"2022-08-11T16:11:45.513312","TLE_LINE1":"1 48465U 21040AP  22223.67483233  .00000074  00000-0  23873-4 0  9999","CENTER_NAME":"EARTH","OBJECT_TYPE":"PAYLOAD","MEAN_MOTION_DOT":"0.00000074","MEAN_MOTION":"15.06389115","ARG_OF_PERICENTER":"86.4687","EPHEMERIS_TYPE":"0","SITE":"AFETR","TLE_LINE2":"2 48465  53.0542 294.5477 0001397  86.4687 273.6462 15.06389115 70922","REF_FRAME":"TEME","MEAN_MOTION_DDOT":"0.0000000000000","OBJECT_ID":"2021-040AP","SEMIMAJOR_AXIS":"6925.382","ECCENTRICITY":"0.00013970","PERIOD":"95.593","DECAY_DATE":null,"COUNTRY_CODE":"US","APOAPSIS":"548.214","OBJECT_NAME":"STARLINK-2681","ELEMENT_SET_NO":"999"},{"ELEMENT_SET_NO":"999","OBJECT_NAME":"STARLINK-2687","APOAPSIS":"548.547","COUNTRY_CODE":"US","DECAY_DATE":null,"PERIOD":"95.593","ECCENTRICITY":"0.00018550","SEMIMAJOR_AXIS":"6925.397","OBJECT_ID":"2021-040AQ","MEAN_MOTION_DDOT":"0.0000000000000","REF_FRAME":"TEME","TLE_LINE2":"2 48466  53.0567 295.5154 0001855  77.8767 282.2429 15.06384146 70899","SITE":"AFETR","EPHEMERIS_TYPE":"0","ARG_OF_PERICENTER":"77.8767","MEAN_MOTION":"15.06384146","MEAN_MOTION_DOT":"0.00004777","OBJECT_TYPE":"PAYLOAD","CENTER_NAME":"EARTH","TLE_LINE1":"1 48466U 21040AQ  22223.46105360  .00004777  00000-0  33951-3 0  9990","GP_ID":"210039083","EPOCH":"2022-08-11T11:03:55.031040","NORAD_CAT_ID":"48466","INCLINATION":"53.0567","MEAN_ANOMALY":"282.2429","MEAN_ELEMENT_THEORY":"SGP4","TIME_SYSTEM":"UTC","BSTAR":"0.00033951000000","FILE":"3534645","RCS_SIZE":"LARGE","RA_OF_ASC_NODE":"295.5154","CLASSIFICATION_TYPE":"U","LAUNCH_DATE":"2021-05-09","REV_AT_EPOCH":"7089","PERIAPSIS":"545.977"},{"TLE_LINE1":"1 48467U 21040AR  22223.88494732 -.00000347  00000-0 -44143-5 0  9999","EPOCH":"2022-08-11T21:14:19.448448","GP_ID":"210038795","EPHEMERIS_TYPE":"0","SITE":"AFETR","ARG_OF_PERICENTER":"76.2311","MEAN_MOTION":"15.06381639","MEAN_MOTION_DOT":"-0.00000347","OBJECT_TYPE":"PAYLOAD","CENTER_NAME":"EARTH","REV_AT_EPOCH":"7095","LAUNCH_DATE":"2021-05-09","PERIAPSIS":"546.408","MEAN_ANOMALY":"283.8816","INCLINATION":"53.0555","NORAD_CAT_ID":"48467","TIME_SYSTEM":"UTC","MEAN_ELEMENT_THEORY":"SGP4","FILE":"3534645","RCS_SIZE":"LARGE","BSTAR":"-0.00000441430000","CLASSIFICATION_TYPE":"U","RA_OF_ASC_NODE":"293.6116","APOAPSIS":"548.132","COUNTRY_CODE":"US","PERIOD":"95.593","DECAY_DATE":null,"ELEMENT_SET_NO":"999","OBJECT_NAME":"STARLINK-2659","OBJECT_ID":"2021-040AR","REF_FRAME":"TEME","MEAN_MOTION_DDOT":"0.0000000000000","TLE_LINE2":"2 48467  53.0555 293.6116 0001245  76.2311 283.8816 15.06381639 70953","ECCENTRICITY":"0.00012450","SEMIMAJOR_AXIS":"6925.405"},{"ELEMENT_SET_NO":"999","OBJECT_NAME":"STARLINK-2685","APOAPSIS":"548.156","COUNTRY_CODE":"US","DECAY_DATE":null,"PERIOD":"95.593","ECCENTRICITY":"0.00013320","SEMIMAJOR_AXIS":"6925.369","OBJECT_ID":"2021-040AS","MEAN_MOTION_DDOT":"0.0000000000000","REF_FRAME":"TEME","TLE_LINE2":"2 48468  53.0540 294.5939 0001332  71.5111 288.6023 15.06393460 70929","SITE":"AFETR","EPHEMERIS_TYPE":"0","ARG_OF_PERICENTER":"71.5111","MEAN_MOTION":"15.06393460","OBJECT_TYPE":"PAYLOAD","CENTER_NAME":"EARTH","MEAN_MOTION_DOT":"0.00003626","TLE_LINE1":"1 48468U 21040AS  22223.66746433  .00003626  00000-0  26222-3 0  9991","GP_ID":"210038791","EPOCH":"2022-08-11T16:01:08.918112","INCLINATION":"53.0540","NORAD_CAT_ID":"48468","MEAN_ANOMALY":"288.6023","MEAN_ELEMENT_THEORY":"SGP4","TIME_SYSTEM":"UTC","FILE":"3534645","BSTAR":"0.00026222000000","RCS_SIZE":"LARGE","RA_OF_ASC_NODE":"294.5939","CLASSIFICATION_TYPE":"U","REV_AT_EPOCH":"7092","LAUNCH_DATE":"2021-05-09","PERIAPSIS":"546.311"},{"MEAN_ANOMALY":"241.8097","INCLINATION":"53.0544","NORAD_CAT_ID":"48469","TIME_SYSTEM":"UTC","MEAN_ELEMENT_THEORY":"SGP4","BSTAR":"0.00002597500000","FILE":"3534647","RCS_SIZE":"LARGE","CLASSIFICATION_TYPE":"U","RA_OF_ASC_NODE":"295.4069","REV_AT_EPOCH":"7089","LAUNCH_DATE":"2021-05-09","PERIAPSIS":"546.205","EPHEMERIS_TYPE":"0","SITE":"AFETR","ARG_OF_PERICENTER":"118.3042","MEAN_MOTION":"15.06393263","OBJECT_TYPE":"PAYLOAD","MEAN_MOTION_DOT":"0.00000105","CENTER_NAME":"EARTH","TLE_LINE1":"1 48469U 21040AT  22223.48315997  .00000105  00000-0  25975-4 0  9993","EPOCH":"2022-08-11T11:35:45.021408","GP_ID":"210039100","ECCENTRICITY":"0.00014860","SEMIMAJOR_AXIS":"6925.369","OBJECT_ID":"2021-040AT","REF_FRAME":"TEME","MEAN_MOTION_DDOT":"0.0000000000000","TLE_LINE2":"2 48469  53.0544 295.4069 0001486 118.3042 241.8097 15.06393263 70890","ELEMENT_SET_NO":"999","OBJECT_NAME":"STARLINK-2661","APOAPSIS":"548.263","COUNTRY_CODE":"US","PERIOD":"95.593","DECAY_DATE":null},{"ELEMENT_SET_NO":"999","OBJECT_NAME":"STARLINK-2675","COUNTRY_CODE":"US","APOAPSIS":"548.418","PERIOD":"95.593","DECAY_DATE":null,"ECCENTRICITY":"0.00016840","SEMIMAJOR_AXIS":"6925.387","OBJECT_ID":"2021-040AU","TLE_LINE2":"2 48470  53.0546 294.8275 0001684  69.2804 290.8366 15.06387375 70919","MEAN_MOTION_DDOT":"0.0000000000000","REF_FRAME":"TEME","ARG_OF_PERICENTER":"69.2804","SITE":"AFETR","EPHEMERIS_TYPE":"0","OBJECT_TYPE":"PAYLOAD","MEAN_MOTION_DOT":"0.00005462","CENTER_NAME":"EARTH","MEAN_MOTION":"15.06387375","TLE_LINE1":"1 48470U 21040AU  22223.61123592  .00005462  00000-0  38544-3 0  9994","GP_ID":"210036350","EPOCH":"2022-08-11T14:40:10.783488","MEAN_ELEMENT_THEORY":"SGP4","TIME_SYSTEM":"UTC","INCLINATION":"53.0546","NORAD_CAT_ID":"48470","MEAN_ANOMALY":"290.8366","RA_OF_ASC_NODE":"294.8275","CLASSIFICATION_TYPE":"U","FILE":"3534536","RCS_SIZE":"LARGE","BSTAR":"0.00038544000000","PERIAPSIS":"546.086","REV_AT_EPOCH":"7091","LAUNCH_DATE":"2021-05-09"}];
